OBJECT_NAME,OBJECT_ID,EPOCH,MEAN_MOTION,ECCENTRICITY,INCLINATION,RA_OF_ASC_NODE,ARG_OF_PERICENTER,MEAN_ANOMALY,EPHEMERIS_TYPE,CLASSIFICATION_TYPE,NORAD_CAT_ID,ELEMENT_SET_NO,REV_AT_EPOCH,BSTAR,MEAN_MOTION_DOT,MEAN_MOTION_DDOT
GALAXY 16 (G-16),2006-023A,2026-06-06T13:00:04.315104,1.00272224,.00027955,0.0071,216.0864,217.5945,277.2985,0,U,29236,999,7286,0,-.114E-5,0
EUTELSAT 33F,2006-032A,2026-06-06T13:37:49.323072,1.00274081,.00035411,1.6334,82.3636,349.0174,61.1645,0,U,29270,999,4720,0,.169E-5,0
JCSAT-3A,2006-033A,2026-06-06T14:04:50.340864,1.00271577,.00021739,0.0164,302.5351,140.8261,150.8539,0,U,29272,999,4763,0,-.331E-5,0
KOREASAT 5 (MUGUNGWHA 5),2006-034A,2026-06-06T14:49:04.662048,1.00273277,.0001397,1.7572,83.1126,33.4031,113.8472,0,U,29349,999,4121,0,-.344E-5,0
DIRECTV 9S,2006-043A,2026-06-06T12:59:26.875392,1.00271816,.00051374,2.3926,81.0308,5.2306,262.3756,0,U,29494,999,5127,0,-.1E-5,0
OPTUS D1,2006-043B,2026-06-06T14:11:42.182880,1.00272119,.00037268,3.0068,79.7854,351.6656,188.4843,0,U,29495,999,7201,0,-.17E-5,0
BADR-4,2006-051A,2026-06-04T17:50:03.090912,1.00450212,.00078927,1.9707,81.2738,161.5231,306.4291,0,U,29526,999,5114,0,.167E-5,0
WILDBLUE-1,2006-054A,2026-06-06T12:56:34.649952,1.00272476,.000162,2.7749,80.6167,352.5702,264.7067,0,U,29643,999,5368,0,-.36E-6,0
SKYNET 5A,2007-007B,2026-06-06T04:22:21.711072,1.00273331,.00039546,5.2739,73.8725,5.4665,336.0655,0,U,30794,999,7058,0,-.259E-5,0
ANIK F3,2007-009A,2026-06-06T12:54:27.353376,1.00271030,.00027635,1.1691,83.9787,352.1104,253.7517,0,U,31102,999,4645,0,.13E-6,0
ASTRA 1L,2007-016A,2026-06-06T09:55:54.113664,1.00270871,.00054252,1.2932,81.6683,3.4051,294.2440,0,U,31306,999,4487,0,-.171E-5,0
GALAXY 17 (G-17),2007-016B,2026-06-06T13:04:03.931680,1.00272457,.00049235,2.9445,80.0350,13.3832,272.5693,0,U,31307,999,6969,0,-.193E-5,0
INTELSAT 11 (IS-11),2007-044B,2026-06-06T15:40:02.354592,0.99053769,.00017727,3.5373,78.7969,78.9029,144.4742,0,U,32253,999,6834,0,-.19E-5,0
WGS F1 (USA 195),2007-046A,2026-06-06T11:33:35.702208,1.00271843,.00005502,0.0468,93.9159,325.2918,326.6139,0,U,32258,999,5222,0,-.254E-5,0
SKYNET 5B,2007-056B,2026-06-06T03:38:38.460192,1.00267326,.00038736,5.2257,73.6341,354.3013,266.3853,0,U,32294,999,6808,0,.152E-5,0
ASTRA 4A,2007-057A,2026-06-06T08:21:42.136704,1.00274026,.00026104,0.0244,303.6976,138.0574,303.2584,0,U,32299,999,5153,0,.46E-6,0
HORIZONS-2,2007-063B,2026-06-06T13:07:18.621120,1.00272836,.00041197,2.5740,80.7565,353.6876,303.5764,0,U,32388,999,6770,0,-.24E-5,0
THURAYA-3,2008-001A,2026-06-06T14:44:28.135392,1.00009458,.00010889,5.9710,35.7806,150.0875,16.3287,0,U,32404,999,6738,0,-.131E-5,0
THOR 5,2008-006A,2026-06-06T08:20:04.793280,1.00272941,.00026922,0.0443,257.6735,185.9156,295.4478,0,U,32487,999,6720,0,.4E-7,0
AMC-14,2008-011A,2026-06-05T16:13:44.125824,1.00353185,.00458262,23.9919,20.6590,6.6193,172.4980,0,U,32708,999,6805,0,-.14E-6,0
DIRECTV 11,2008-013A,2026-06-06T09:21:33.935904,1.00269829,.00003371,0.0363,173.8473,246.0332,236.1421,0,U,32729,999,4548,0,-.112E-5,0
ICO G1,2008-016A,2026-06-06T11:27:50.804640,1.00272811,.00023008,5.5308,36.1710,25.5247,272.2969,0,U,32763,999,6643,0,-.16E-5,0
VINASAT-1,2008-018A,2026-06-06T14:05:57.732864,1.00272817,.00013188,0.0122,319.0135,119.5979,159.8362,0,U,32767,999,6648,0,-.315E-5,0
STAR ONE C2,2008-018B,2026-06-06T13:09:48.381696,1.00274068,.00028017,1.2131,82.5596,355.6967,309.1619,0,U,32768,999,6654,0,-.263E-5,0
AMOS-3,2008-022A,2026-06-06T13:37:11.883360,1.00470921,.00019001,0.4271,86.4089,60.0144,344.0405,0,U,32794,999,8223,0,.169E-5,0
GALAXY 18 (G-18),2008-024A,2026-06-06T12:53:12.473088,1.00271950,.00032593,0.0196,60.9023,25.8209,238.5256,0,U,32951,999,4574,0,.38E-6,0
ZHONGXING-9,2008-028A,2026-06-05T21:36:21.585312,1.00269615,.000485,0.7398,85.4966,330.8361,254.4515,0,U,33051,999,6592,0,-.236E-5,0
SKYNET 5C,2008-030A,2026-06-06T09:57:53.921952,1.00270903,.00042232,3.7607,77.1676,7.8460,301.5174,0,U,33055,999,6584,0,-.127E-5,0
TURKSAT 3A,2008-030B,2026-06-06T13:40:19.082784,1.00272240,.00053417,0.0706,83.4971,343.0827,75.4673,0,U,33056,999,5225,0,.16E-5,0
INTELSAT 25 (IS-25),2008-034A,2026-06-06T14:40:28.484256,0.99020141,.00018956,2.6803,80.4544,29.3933,174.1055,0,U,33153,999,6558,0,-.208E-5,0
ECHOSTAR 11,2008-035A,2026-06-06T12:57:04.602240,1.00271839,.00025398,0.9768,84.3039,337.6748,277.4528,0,U,33207,999,5110,0,-.45E-6,0
SUPERBIRD-C2,2008-038A,2026-06-06T14:07:05.125728,1.00272593,.00060413,2.3329,81.3947,20.9713,140.4063,0,U,33274,999,10562,0,-.293E-5,0
