GALAXY 16 (G-16)        
1 29236U 06023A   26157.54171661 -.00000114  00000+0  00000+0 0  9990
2 29236   0.0071 216.0864 0002795 217.5945 277.2985  1.00272224 72868
EUTELSAT 33F            
1 29270U 06032A   26157.56793198  .00000169  00000+0  00000+0 0  9994
2 29270   1.6334  82.3636 0003541 349.0174  61.1645  1.00274081 47207
JCSAT-3A                
1 29272U 06033A   26157.58669376 -.00000331  00000+0  00000+0 0  9991
2 29272   0.0164 302.5351 0002173 140.8261 150.8539  1.00271577 47630
KOREASAT 5 (MUGUNGWHA 5)
1 29349U 06034A   26157.61741507 -.00000344  00000+0  00000+0 0  9992
2 29349   1.7572  83.1126 0001397  33.4031 113.8472  1.00273277 41219
DIRECTV 9S              
1 29494U 06043A   26157.54128328 -.00000100  00000+0  00000+0 0  9995
2 29494   2.3926  81.0308 0005137   5.2306 262.3756  1.00271816 51276
OPTUS D1                
1 29495U 06043B   26157.59146045 -.00000170  00000+0  00000+0 0  9994
2 29495   3.0068  79.7854 0003726 351.6656 188.4843  1.00272119 72017
BADR-4                  
1 29526U 06051A   26155.74309133  .00000167  00000+0  00000+0 0  9997
2 29526   1.9707  81.2738 0007892 161.5231 306.4291  1.00450212 51145
WILDBLUE-1              
1 29643U 06054A   26157.53928993 -.00000036  00000+0  00000+0 0  9996
2 29643   2.7749  80.6167 0001620 352.5702 264.7067  1.00272476 53689
SKYNET 5A               
1 30794U 07007B   26157.18219573 -.00000259  00000+0  00000+0 0  9999
2 30794   5.2739  73.8725 0003954   5.4665 336.0655  1.00273331 70588
ANIK F3                 
1 31102U 07009A   26157.53781659  .00000013  00000+0  00000+0 0  9990
2 31102   1.1691  83.9787 0002763 352.1104 253.7517  1.00271030 46456
ASTRA 1L                
1 31306U 07016A   26157.41382076 -.00000171  00000+0  00000+0 0  9997
2 31306   1.2932  81.6683 0005425   3.4051 294.2440  1.00270871 44877
GALAXY 17 (G-17)        
1 31307U 07016B   26157.54448995 -.00000193  00000+0  00000+0 0  9999
2 31307   2.9445  80.0350 0004923  13.3832 272.5693  1.00272457 69696
INTELSAT 11 (IS-11)     
1 32253U 07044B   26157.65280503 -.00000190  00000+0  00000+0 0  9999
2 32253   3.5373  78.7969 0001772  78.9029 144.4742  0.99053769 68341
WGS F1 (USA 195)        
1 32258U 07046A   26157.48166322 -.00000254  00000+0  00000+0 0  9990
2 32258   0.0468  93.9159 0000550 325.2918 326.6139  1.00271843 52223
SKYNET 5B               
1 32294U 07056B   26157.15183403  .00000152  00000+0  00000+0 0  9990
2 32294   5.2257  73.6341 0003873 354.3013 266.3853  1.00267326 68089
ASTRA 4A                
1 32299U 07057A   26157.34840436  .00000046  00000+0  00000+0 0  9995
2 32299   0.0244 303.6976 0002610 138.0574 303.2584  1.00274026 51539
HORIZONS-2              
1 32388U 07063B   26157.54674330 -.00000240  00000+0  00000+0 0  9998
2 32388   2.5740  80.7565 0004119 353.6876 303.5764  1.00272836 67705
THURAYA-3               
1 32404U 08001A   26157.61421453 -.00000131  00000+0  00000+0 0  9993
2 32404   5.9710  35.7806 0001088 150.0875  16.3287  1.00009458 67387
THOR 5                  
1 32487U 08006A   26157.34727770  .00000004  00000+0  00000+0 0  9998
2 32487   0.0443 257.6735 0002692 185.9156 295.4478  1.00272941 67206
AMC-14                  
1 32708U 08011A   26156.67620516 -.00000014  00000+0  00000+0 0  9997
2 32708  23.9919  20.6590 0045826   6.6193 172.4980  1.00353185 68053
DIRECTV 11              
1 32729U 08013A   26157.38997611 -.00000112  00000+0  00000+0 0  9993
2 32729   0.0363 173.8473 0000337 246.0332 236.1421  1.00269829 45480
ICO G1                  
1 32763U 08016A   26157.47767135 -.00000160  00000+0  00000+0 0  9993
2 32763   5.5308  36.1710 0002300  25.5247 272.2969  1.00272811 66430
VINASAT-1               
1 32767U 08018A   26157.58747376 -.00000315  00000+0  00000+0 0  9998
2 32767   0.0122 319.0135 0001318 119.5979 159.8362  1.00272817 66484
STAR ONE C2             
1 32768U 08018B   26157.54847664 -.00000263  00000+0  00000+0 0  9998
2 32768   1.2131  82.5596 0002801 355.6967 309.1619  1.00274068 66541
AMOS-3                  
1 32794U 08022A   26157.56749865  .00000169  00000+0  00000+0 0  9992
2 32794   0.4271  86.4089 0001900  60.0144 344.0405  1.00470921 82230
GALAXY 18 (G-18)        
1 32951U 08024A   26157.53694992  .00000038  00000+0  00000+0 0  9991
2 32951   0.0196  60.9023 0003259  25.8209 238.5256  1.00271950 45749
ZHONGXING-9             
1 33051U 08028A   26156.90024983 -.00000236  00000+0  00000+0 0  9995
2 33051   0.7398  85.4966 0004850 330.8361 254.4515  1.00269615 65928
SKYNET 5C               
1 33055U 08030A   26157.41520743 -.00000127  00000+0  00000+0 0  9993
2 33055   3.7607  77.1676 0004223   7.8460 301.5174  1.00270903 65847
TURKSAT 3A              
1 33056U 08030B   26157.56966531  .00000160  00000+0  00000+0 0  9995
2 33056   0.0706  83.4971 0005341 343.0827  75.4673  1.00272240 52258
INTELSAT 25 (IS-25)     
1 33153U 08034A   26157.61144079 -.00000208  00000+0  00000+0 0  9992
2 33153   2.6803  80.4544 0001895  29.3933 174.1055  0.99020141 65586
ECHOSTAR 11             
1 33207U 08035A   26157.53963660 -.00000045  00000+0  00000+0 0  9998
2 33207   0.9768  84.3039 0002539 337.6748 277.4528  1.00271839 51104
SUPERBIRD-C2            
1 33274U 08038A   26157.58825377 -.00000293  00000+0  00000+0 0  9997
2 33274   2.3329  81.3947 0006041  20.9713 140.4063  1.00272593105626
